GPS BIIR-2  (PRN 13)    
1 24876U 97035A   23314.90453848  .00000103  00000+0  00000+0 0  9997
2 24876  55.6064 135.7039 0074948  53.5253 307.2171  2.00564655192914
GPS BIIR-4  (PRN 20)    
1 26360U 00025A   23315.31272440 -.00000056  00000+0  00000+0 0  9991
2 26360  54.4894  57.8213 0041842 203.8610 181.6621  2.00566090172247
GPS BIIR-5  (PRN 22)    
1 26407U 00040A   23315.84143514 -.00000014  00000+0  00000+0 0  9991
2 26407  55.1687 252.8753 0152565 292.7335 316.7078  2.00557135170929
GPS BIIR-8  (PRN 16)    
1 27663U 03005A   23315.80298212 -.00000014  00000+0  00000+0 0  9992
2 27663  55.2100 252.6877 0134746  45.1912 312.9749  2.00562084152283
GPS BIIR-9  (PRN 21)    
1 27704U 03010A   23315.64578495 -.00000074  00000+0  00000+0 0  9996
2 27704  55.1150   2.6132 0250779 320.2914 143.0058  2.00554387151084
GPS BIIR-11 (PRN 19)    
1 28190U 04009A   23315.94932160 -.00000040  00000+0  00000+0 0  9994
2 28190  55.6377 313.7391 0092147 141.3115 119.2261  2.00565226143920
GPS BIIR-13 (PRN 02)    
1 28474U 04045A   23315.64608229 -.00000073  00000+0  00000+0 0  9998
2 28474  55.4426   2.9579 0164315 284.4760 170.3215  2.00557318139403
GPS BIIRM-1 (PRN 17)    
1 28874U 05038A   23315.72121535 -.00000039  00000+0  00000+0 0  9996
2 28874  55.6880 311.2023 0140436 280.9205 198.1385  2.00570853132819
GPS BIIRM-2 (PRN 31)    
1 29486U 06042A   23315.69668433  .00000077  00000+0  00000+0 0  9992
2 29486  54.6791 188.9464 0104566  34.5006 327.5894  2.00566427125371
GPS BIIRM-3 (PRN 12)    
1 29601U 06052A   23315.61938455 -.00000015  00000+0  00000+0 0  9991
2 29601  55.2330 251.6587 0084771  79.5772 281.3740  2.00553236124385
GPS BIIRM-4 (PRN 15)    
1 32260U 07047A   23315.43426029  .00000074  00000+0  00000+0 0  9994
2 32260  53.4990 119.3179 0152433  72.5131 289.1678  2.00575443117788
GPS BIIRM-5 (PRN 29)    
1 32384U 07062A   23315.51572377 -.00000039  00000+0  00000+0 0  9997
2 32384  55.8218 312.0417 0024080 152.2498  37.9787  2.00562243116489
GPS BIIRM-6 (PRN 07)    
1 32711U 08012A   23314.84841696  .00000071  00000+0  00000+0 0  9990
2 32711  54.4476 187.7954 0178029 236.2424 122.1454  2.00559687114712
GPS BIIRM-8 (PRN 05)    
1 35752U 09043A   23315.36939816 -.00000043  00000+0  00000+0 0  9993
2 35752  55.4914  65.0024 0056873  70.3439 321.7284  2.00554149104310
GPS BIIF-1  (PRN 25)    
1 36585U 10022A   23315.40646231 -.00000013  00000+0  00000+0 0  9995
2 36585  54.5343 246.8389 0112255  59.8751 117.6314  2.00565480 98565
GPS BIIF-3  (PRN 24)    
1 38833U 12053A   23315.02236372  .00000079  00000+0  00000+0 0  9999
2 38833  53.5099 182.4266 0146306  53.3728 308.0669  2.00568391 80403
GPS BIIF-4  (PRN 27)    
1 39166U 13023A   23315.38478201 -.00000039  00000+0  00000+0 0  9992
2 39166  55.3027 307.3847 0116506  41.5270 319.3627  2.00564207 76852
GPS BIIF-5  (PRN 30)    
1 39533U 14008A   23315.88504140  .00000078  00000+0  00000+0 0  9993
2 39533  53.5957 187.9588 0067090 215.2799 144.3754  2.00555623 71219
GPS BIIF-6  (PRN 06)    
1 39741U 14026A   23315.17008379 -.00000076  00000+0  00000+0 0  9998
2 39741  56.7027   8.3596 0031458 309.5164  50.2696  2.00552504 69504
GPS BIIF-7  (PRN 09)    
1 40105U 14045A   23315.75195757  .00000087  00000+0  00000+0 0  9997
2 40105  54.8407 126.3377 0027586 115.2956 245.0222  2.00551383 67058
GPS BIIF-8  (PRN 03)    
1 40294U 14068A   23314.62717352 -.00000037  00000+0  00000+0 0  9993
2 40294  56.2356  67.8247 0048782  62.8392 297.6463  2.00576232 66164
GPS BIIF-9  (PRN 26)    
1 40534U 15013A   23315.76679093 -.00000007  00000+0  00000+0 0  9993
2 40534  53.4322 243.4553 0084045  26.8287 333.6134  2.00550468 62806
GPS BIIF-10 (PRN 08)    
1 40730U 15033A   23315.43004553 -.00000039  00000+0  00000+0 0  9995
2 40730  54.7898 305.9639 0088328  14.3344 345.9212  2.00551552 60962
GPS BIIF-11 (PRN 10)    
1 41019U 15062A   23315.47996605 -.00000037  00000+0  00000+0 0  9998
2 41019  56.2191  67.6427 0092260 222.0066 137.2747  2.00562203 58802
GPS BIIF-12 (PRN 32)    
1 41328U 16007A   23315.56754954  .00000089  00000+0  00000+0 0  9996
2 41328  55.0431 127.1389 0072943 233.6494 125.7088  2.00572539 56819
GPS BIII-1  (PRN 04)    
1 43873U 18109A   23314.96280469  .00000095  00000+0  00000+0 0  9993
2 43873  55.2171 129.6924 0027112 189.6877 347.9546  2.00571241 36032
GPS BIII-2  (PRN 18)    
1 44506U 19056A   23315.59327663 -.00000076  00000+0  00000+0 0  9997
2 44506  55.8290   8.7386 0038515 188.6859 342.5250  2.00567085 31030
GPS BIII-3  (PRN 23)    
1 45854U 20041A   23315.68657270 -.00000040  00000+0  00000+0 0  9991
2 45854  55.9409  66.0291 0038747 189.0310 352.1527  2.00561791 25019
GPS BIII-4  (PRN 14)    
1 46826U 20078A   23315.71528709 -.00000013  00000+0  00000+0 0  9999
2 46826  54.2783 249.2879 0037188 194.6401 343.2339  2.00562769 22480
GPS BIII-5  (PRN 11)    
1 48859U 21054A   23315.70928561 -.00000077  00000+0  00000+0 0  9991
2 48859  55.3483  10.4874 0013985 218.9646 138.6300  2.00569948 17721
GPS BIII-6  (PRN 28)    
1 55268U 23009A   23315.41461390  .00000080  00000+0  00000+0 0  9998
2 55268  55.0848 185.7459 0004742  87.7754  94.3044  2.00551057  6210
